{
"type": "FeatureCollection",
"name": "tilfluktsrom_web",
"crs": { "type": "name", "properties": { "name": "urn:ogc:def:crs:OGC:1.3:CRS84" } },
"features": [
{ "type": "Feature", "properties": { "lokalId": "9cc2c11f-e853-48a6-b592-7e2251852e21", "navnerom": "https://data.geonorge.no/sosi/samfunnssikkerhet/tilfluktsrom", "versjonId": "20191001", "datauttaksdato": "2026-04-14T01:40:59", "opphav": "Direktoratet for samfunnssikkerhet og beredskap", "romnr": 1688, "plasser": 136, "adresse": "BANEHEIVEIEN", "objtype": "Tilfluktsrom" }, "geometry": { "type": "Point", "coordinates": [ 7.982372972469413, 58.149151876836378 ] } },
{ "type": "Feature", "properties": { "lokalId": "7f1e89ad-14f5-4a0d-a65d-5066738f8ac4", "navnerom": "https://data.geonorge.no/sosi/samfunnssikkerhet/tilfluktsrom", "versjonId": "20191001", "datauttaksdato": "2026-04-14T01:40:59", "opphav": "Direktoratet for samfunnssikkerhet og beredskap", "romnr": 1707, "plasser": 195, "adresse": "BYDALSVEIEN 19", "objtype": "Tilfluktsrom" }, "geometry": { "type": "Point", "coordinates": [ 7.922029077523261, 58.148045466377624 ] } },
{ "type": "Feature", "properties": { "lokalId": "988cb7b5-c578-4494-ba35-b6238a11a95f", "navnerom": "https://data.geonorge.no/sosi/samfunnssikkerhet/tilfluktsrom", "versjonId": "20191001", "datauttaksdato": "2026-04-14T01:40:59", "opphav": "Direktoratet for samfunnssikkerhet og beredskap", "romnr": 1740, "plasser": 65, "adresse": "FREDRIK FRANSSONSVEI 4", "objtype": "Tilfluktsrom" }, "geometry": { "type": "Point", "coordinates": [ 8.083975905759145, 58.182995263864676 ] } },
{ "type": "Feature", "properties": { "lokalId": "cfe0e1ba-08f0-4d66-9249-667ec3922126", "navnerom": "https://data.geonorge.no/sosi/samfunnssikkerhet/tilfluktsrom", "versjonId": "20191001", "datauttaksdato": "2026-04-14T01:40:59", "opphav": "Direktoratet for samfunnssikkerhet og beredskap", "romnr": 1755, "plasser": 235, "adresse": "GROSTØLVEIEN 4 E", "objtype": "Tilfluktsrom" }, "geometry": { "type": "Point", "coordinates": [ 8.032042093179609, 58.200180842192374 ] } },
{ "type": "Feature", "properties": { "lokalId": "97dc8283-62c7-40ed-acd9-95914ab389e8", "navnerom": "https://data.geonorge.no/sosi/samfunnssikkerhet/tilfluktsrom", "versjonId": "20191001", "datauttaksdato": "2026-04-14T01:40:59", "opphav": "Direktoratet for samfunnssikkerhet og beredskap", "romnr": 1756, "plasser": 500, "adresse": "GRÅGÅSVEIEN 43", "objtype": "Tilfluktsrom" }, "geometry": { "type": "Point", "coordinates": [ 7.936558314457578, 58.121466210349695 ] } },
{ "type": "Feature", "properties": { "lokalId": "4198304f-b92a-4f0e-b40d-a1c08b1a227c", "navnerom": "https://data.geonorge.no/sosi/samfunnssikkerhet/tilfluktsrom", "versjonId": "20191001", "datauttaksdato": "2026-04-14T01:40:59", "opphav": "Direktoratet for samfunnssikkerhet og beredskap", "romnr": 1776, "plasser": 170, "adresse": "RAVNEDALSVEIEN 34", "objtype": "Tilfluktsrom" }, "geometry": { "type": "Point", "coordinates": [ 7.972961556369304, 58.155101905421326 ] } },
{ "type": "Feature", "properties": { "lokalId": "2fb124a1-73eb-47d8-94a6-91b1e351395a", "navnerom": "https://data.geonorge.no/sosi/samfunnssikkerhet/tilfluktsrom", "versjonId": "20191001", "datauttaksdato": "2026-04-14T01:40:59", "opphav": "Direktoratet for samfunnssikkerhet og beredskap", "romnr": 1795, "plasser": 50, "adresse": "HÅNESVEIEN 61", "objtype": "Tilfluktsrom" }, "geometry": { "type": "Point", "coordinates": [ 8.088881806786004, 58.181108603295449 ] } },
{ "type": "Feature", "properties": { "lokalId": "ca70758c-1959-445b-aa31-68086608c0d1", "navnerom": "https://data.geonorge.no/sosi/samfunnssikkerhet/tilfluktsrom", "versjonId": "20191001", "datauttaksdato": "2026-04-14T01:40:59", "opphav": "Direktoratet for samfunnssikkerhet og beredskap", "romnr": 1799, "plasser": 390, "adresse": "INDUSTRIGATA  6", "objtype": "Tilfluktsrom" }, "geometry": { "type": "Point", "coordinates": [ 8.025720901766082, 58.151396532503512 ] } },
{ "type": "Feature", "properties": { "lokalId": "019a160c-ed65-466a-8f7f-8edda574aa65", "navnerom": "https://data.geonorge.no/sosi/samfunnssikkerhet/tilfluktsrom", "versjonId": "20191001", "datauttaksdato": "2026-04-14T01:40:59", "opphav": "Direktoratet for samfunnssikkerhet og beredskap", "romnr": 1818, "plasser": 170, "adresse": "JORDBÆRVEIEN 2", "objtype": "Tilfluktsrom" }, "geometry": { "type": "Point", "coordinates": [ 8.095321927565141, 58.175808892302477 ] } },
{ "type": "Feature", "properties": { "lokalId": "e7c11705-9ac0-477a-bba3-2c3abba05dc3", "navnerom": "https://data.geonorge.no/sosi/samfunnssikkerhet/tilfluktsrom", "versjonId": "20191001", "datauttaksdato": "2026-04-14T01:40:59", "opphav": "Direktoratet for samfunnssikkerhet og beredskap", "romnr": 1822, "plasser": 184, "adresse": "KARUSSVEIEN 7", "objtype": "Tilfluktsrom" }, "geometry": { "type": "Point", "coordinates": [ 7.946370084841893, 58.129266967717356 ] } },
{ "type": "Feature", "properties": { "lokalId": "1f0c3610-a9b0-428b-940a-be2b0711fe76", "navnerom": "https://data.geonorge.no/sosi/samfunnssikkerhet/tilfluktsrom", "versjonId": "20191001", "datauttaksdato": "2026-04-14T01:40:59", "opphav": "Direktoratet for samfunnssikkerhet og beredskap", "romnr": 1832, "plasser": 465, "adresse": "KIRSTEN FLAGSTADSVEI  30", "objtype": "Tilfluktsrom" }, "geometry": { "type": "Point", "coordinates": [ 7.953970919763588, 58.125390421700544 ] } },
{ "type": "Feature", "properties": { "lokalId": "0d29ae24-2bdb-440a-8b40-b7394a2c55be", "navnerom": "https://data.geonorge.no/sosi/samfunnssikkerhet/tilfluktsrom", "versjonId": "20191001", "datauttaksdato": "2026-04-14T01:40:59", "opphav": "Direktoratet for samfunnssikkerhet og beredskap", "romnr": 1857, "plasser": 243, "adresse": "KONGENSGATE 2", "objtype": "Tilfluktsrom" }, "geometry": { "type": "Point", "coordinates": [ 7.99551245024155, 58.142947435189313 ] } },
{ "type": "Feature", "properties": { "lokalId": "79e1e9d6-f79f-4fac-a57b-ffaff7a493f6", "navnerom": "https://data.geonorge.no/sosi/samfunnssikkerhet/tilfluktsrom", "versjonId": "20191001", "datauttaksdato": "2026-04-14T01:40:59", "opphav": "Direktoratet for samfunnssikkerhet og beredskap", "romnr": 1874, "plasser": 191, "adresse": "KRISTIAN 4. DES GATE 35-37", "objtype": "Tilfluktsrom" }, "geometry": { "type": "Point", "coordinates": [ 7.991813249469601, 58.148303589139793 ] } },
{ "type": "Feature", "properties": { "lokalId": "80053e29-5789-4ceb-b598-7c32ec90465e", "navnerom": "https://data.geonorge.no/sosi/samfunnssikkerhet/tilfluktsrom", "versjonId": "20191001", "datauttaksdato": "2026-04-14T01:40:59", "opphav": "Direktoratet for samfunnssikkerhet og beredskap", "romnr": 1890, "plasser": 120, "adresse": "LINDEBØSKOGEN", "objtype": "Tilfluktsrom" }, "geometry": { "type": "Point", "coordinates": [ 7.999183230761722, 58.089070026227567 ] } },
{ "type": "Feature", "properties": { "lokalId": "25293dd6-e048-4403-b4df-bab6dc90d182", "navnerom": "https://data.geonorge.no/sosi/samfunnssikkerhet/tilfluktsrom", "versjonId": "20191001", "datauttaksdato": "2026-04-14T01:40:59", "opphav": "Direktoratet for samfunnssikkerhet og beredskap", "romnr": 1895, "plasser": 95, "adresse": "MAGNUS BARFOTSVEI 7", "objtype": "Tilfluktsrom" }, "geometry": { "type": "Point", "coordinates": [ 8.043250344442759, 58.177356103916189 ] } },
{ "type": "Feature", "properties": { "lokalId": "b6a4b40b-f3b9-4b48-82ec-256bd78969bd", "navnerom": "https://data.geonorge.no/sosi/samfunnssikkerhet/tilfluktsrom", "versjonId": "20191001", "datauttaksdato": "2026-04-14T01:40:59", "opphav": "Direktoratet for samfunnssikkerhet og beredskap", "romnr": 1897, "plasser": 360, "adresse": "MALMVEIEN 4", "objtype": "Tilfluktsrom" }, "geometry": { "type": "Point", "coordinates": [ 7.955775802043708, 58.148579916631114 ] } },
{ "type": "Feature", "properties": { "lokalId": "52f56122-2802-4d05-8dc9-c77947dbd0a7", "navnerom": "https://data.geonorge.no/sosi/samfunnssikkerhet/tilfluktsrom", "versjonId": "20191001", "datauttaksdato": "2026-04-14T01:40:59", "opphav": "Direktoratet for samfunnssikkerhet og beredskap", "romnr": 1908, "plasser": 330, "adresse": "MARKENSGATE 42", "objtype": "Tilfluktsrom" }, "geometry": { "type": "Point", "coordinates": [ 7.990487693893634, 58.147248102267383 ] } },
{ "type": "Feature", "properties": { "lokalId": "447d10eb-1bb0-4b09-a569-757495b1bff8", "navnerom": "https://data.geonorge.no/sosi/samfunnssikkerhet/tilfluktsrom", "versjonId": "20191001", "datauttaksdato": "2026-04-14T01:40:59", "opphav": "Direktoratet for samfunnssikkerhet og beredskap", "romnr": 1919, "plasser": 200, "adresse": "MÆBØ", "objtype": "Tilfluktsrom" }, "geometry": { "type": "Point", "coordinates": [ 8.001262011999016, 58.075910421534608 ] } },
{ "type": "Feature", "properties": { "lokalId": "d161d959-9ada-4c7d-9f5c-b190cd008ad2", "navnerom": "https://data.geonorge.no/sosi/samfunnssikkerhet/tilfluktsrom", "versjonId": "20191001", "datauttaksdato": "2026-04-14T01:40:59", "opphav": "Direktoratet for samfunnssikkerhet og beredskap", "romnr": 1922, "plasser": 300, "adresse": "MØLLEVANNSVEIEN 50", "objtype": "Tilfluktsrom" }, "geometry": { "type": "Point", "coordinates": [ 7.970141013426192, 58.148601237978426 ] } },
{ "type": "Feature", "properties": { "lokalId": "6a16a389-07c6-4b54-9881-b879c91c5a65", "navnerom": "https://data.geonorge.no/sosi/samfunnssikkerhet/tilfluktsrom", "versjonId": "20191001", "datauttaksdato": "2026-04-14T01:40:59", "opphav": "Direktoratet for samfunnssikkerhet og beredskap", "romnr": 1931, "plasser": 220, "adresse": "ODDERHEI 1", "objtype": "Tilfluktsrom" }, "geometry": { "type": "Point", "coordinates": [ 8.076469111433367, 58.134340491122252 ] } },
{ "type": "Feature", "properties": { "lokalId": "f1020d56-e98e-4a5d-b8da-975c563b90a9", "navnerom": "https://data.geonorge.no/sosi/samfunnssikkerhet/tilfluktsrom", "versjonId": "20191001", "datauttaksdato": "2026-04-14T01:40:59", "opphav": "Direktoratet for samfunnssikkerhet og beredskap", "romnr": 1938, "plasser": 230, "adresse": "PRESTHEIA 10", "objtype": "Tilfluktsrom" }, "geometry": { "type": "Point", "coordinates": [ 8.010934186093845, 58.16657919561441 ] } },
{ "type": "Feature", "properties": { "lokalId": "6aaecf3b-e96a-4e66-a82d-819c7b001251", "navnerom": "https://data.geonorge.no/sosi/samfunnssikkerhet/tilfluktsrom", "versjonId": "20191001", "datauttaksdato": "2026-04-14T01:40:59", "opphav": "Direktoratet for samfunnssikkerhet og beredskap", "romnr": 1951, "plasser": 170, "adresse": "RØDSTRUPEVEIEN 17", "objtype": "Tilfluktsrom" }, "geometry": { "type": "Point", "coordinates": [ 7.960986204906097, 58.133827648565585 ] } },
{ "type": "Feature", "properties": { "lokalId": "16535bbb-c36c-4a6e-967b-eab490378a3b", "navnerom": "https://data.geonorge.no/sosi/samfunnssikkerhet/tilfluktsrom", "versjonId": "20191001", "datauttaksdato": "2026-04-14T01:40:59", "opphav": "Direktoratet for samfunnssikkerhet og beredskap", "romnr": 1971, "plasser": 170, "adresse": "SKIBÅSEN 2", "objtype": "Tilfluktsrom" }, "geometry": { "type": "Point", "coordinates": [ 8.126059841173932, 58.173421131914658 ] } },
{ "type": "Feature", "properties": { "lokalId": "b7279a25-a4cf-4f74-b138-38962e3e14c7", "navnerom": "https://data.geonorge.no/sosi/samfunnssikkerhet/tilfluktsrom", "versjonId": "20191001", "datauttaksdato": "2026-04-14T01:40:59", "opphav": "Direktoratet for samfunnssikkerhet og beredskap", "romnr": 1998, "plasser": 70, "adresse": "SLETTHEIVEIEN 63 B", "objtype": "Tilfluktsrom" }, "geometry": { "type": "Point", "coordinates": [ 7.935868258313072, 58.135640309431722 ] } },
{ "type": "Feature", "properties": { "lokalId": "94eb6a48-300b-4ceb-9b2f-cdd474680f73", "navnerom": "https://data.geonorge.no/sosi/samfunnssikkerhet/tilfluktsrom", "versjonId": "20191001", "datauttaksdato": "2026-04-14T01:40:59", "opphav": "Direktoratet for samfunnssikkerhet og beredskap", "romnr": 2014, "plasser": 234, "adresse": "STRØMMEVEIEN 85-87", "objtype": "Tilfluktsrom" }, "geometry": { "type": "Point", "coordinates": [ 8.081450084425036, 58.154679877596216 ] } },
{ "type": "Feature", "properties": { "lokalId": "f356d985-ab85-4770-8277-a87fad65c038", "navnerom": "https://data.geonorge.no/sosi/samfunnssikkerhet/tilfluktsrom", "versjonId": "20191001", "datauttaksdato": "2026-04-14T01:40:59", "opphav": "Direktoratet for samfunnssikkerhet og beredskap", "romnr": 2057, "plasser": 130, "adresse": "VARDÅSVEIEN 115/117", "objtype": "Tilfluktsrom" }, "geometry": { "type": "Point", "coordinates": [ 8.059193559741814, 58.145409042308053 ] } },
{ "type": "Feature", "properties": { "lokalId": "6ce6ce72-3e51-43ca-9131-b876411bf8ef", "navnerom": "https://data.geonorge.no/sosi/samfunnssikkerhet/tilfluktsrom", "versjonId": "20191001", "datauttaksdato": "2026-04-14T01:40:59", "opphav": "Direktoratet for samfunnssikkerhet og beredskap", "romnr": 2082, "plasser": 150, "adresse": "VIGVOLLÅSEN 16", "objtype": "Tilfluktsrom" }, "geometry": { "type": "Point", "coordinates": [ 8.088491312852476, 58.171562636446971 ] } },
{ "type": "Feature", "properties": { "lokalId": "ccf72f8c-a6c1-42ab-9d5b-44a4cceda25c", "navnerom": "https://data.geonorge.no/sosi/samfunnssikkerhet/tilfluktsrom", "versjonId": "20191001", "datauttaksdato": "2026-04-14T01:40:59", "opphav": "Direktoratet for samfunnssikkerhet og beredskap", "romnr": 2083, "plasser": 150, "adresse": "VOIE RINGVEI 108", "objtype": "Tilfluktsrom" }, "geometry": { "type": "Point", "coordinates": [ 7.947831861536728, 58.101743653080185 ] } },
{ "type": "Feature", "properties": { "lokalId": "3e61a52e-3dad-48ad-8122-4f46fc4ca757", "navnerom": "https://data.geonorge.no/sosi/samfunnssikkerhet/tilfluktsrom", "versjonId": "20191001", "datauttaksdato": "2026-04-14T01:40:59", "opphav": "Direktoratet for samfunnssikkerhet og beredskap", "romnr": 2091, "plasser": 120, "adresse": "ØSTERVEIEN 30 B", "objtype": "Tilfluktsrom" }, "geometry": { "type": "Point", "coordinates": [ 8.009105635847057, 58.152843745926425 ] } },
{ "type": "Feature", "properties": { "lokalId": "2e253758-4bde-4e6b-8000-8cbc5966f4a3", "navnerom": "https://data.geonorge.no/sosi/samfunnssikkerhet/tilfluktsrom", "versjonId": "20191001", "datauttaksdato": "2026-04-14T01:40:59", "opphav": "Direktoratet for samfunnssikkerhet og beredskap", "romnr": 2094, "plasser": 220, "adresse": "ØSTERØYA 8", "objtype": "Tilfluktsrom" }, "geometry": { "type": "Point", "coordinates": [ 8.001413050991577, 58.077045230559548 ] } },
{ "type": "Feature", "properties": { "lokalId": "c3b6c4c4-032e-4c59-9eb7-378aa29e8cb9", "navnerom": "https://data.geonorge.no/sosi/samfunnssikkerhet/tilfluktsrom", "versjonId": "20191001", "datauttaksdato": "2026-04-14T01:40:59", "opphav": "Direktoratet for samfunnssikkerhet og beredskap", "romnr": 2098, "plasser": 190, "adresse": "ØSTRE RINGVEI 8", "objtype": "Tilfluktsrom" }, "geometry": { "type": "Point", "coordinates": [ 8.021043499764446, 58.148571170402334 ] } },
{ "type": "Feature", "properties": { "lokalId": "b51aaffa-9b40-4ca1-b3dc-099264ee1679", "navnerom": "https://data.geonorge.no/sosi/samfunnssikkerhet/tilfluktsrom", "versjonId": "20191001", "datauttaksdato": "2026-04-14T01:40:59", "opphav": "Direktoratet for samfunnssikkerhet og beredskap", "romnr": 2104, "plasser": 100, "adresse": "ØSTRE STRANDGATE 67", "objtype": "Tilfluktsrom" }, "geometry": { "type": "Point", "coordinates": [ 8.006070137489266, 58.148179677246596 ] } },
{ "type": "Feature", "properties": { "lokalId": "ae97bc65-f7cc-4f56-9def-da2cbf28f694", "navnerom": "https://data.geonorge.no/sosi/samfunnssikkerhet/tilfluktsrom", "versjonId": "20191001", "datauttaksdato": "2026-04-14T01:40:59", "opphav": "Direktoratet for samfunnssikkerhet og beredskap", "romnr": 2108, "plasser": 360, "adresse": "ØVRE BRATTBAKKEN 1", "objtype": "Tilfluktsrom" }, "geometry": { "type": "Point", "coordinates": [ 8.091321325227504, 58.178745234822941 ] } },
{ "type": "Feature", "properties": { "lokalId": "d011677d-a3fe-4954-843a-784daf1a7869", "navnerom": "https://data.geonorge.no/sosi/samfunnssikkerhet/tilfluktsrom", "versjonId": "20191001", "datauttaksdato": "2026-04-14T01:40:59", "opphav": "Direktoratet for samfunnssikkerhet og beredskap", "romnr": 2127, "plasser": 235, "adresse": "TANGVALL", "objtype": "Tilfluktsrom" }, "geometry": { "type": "Point", "coordinates": [ 7.814258358222159, 58.096338684464271 ] } },
{ "type": "Feature", "properties": { "lokalId": "97f650ac-c989-425a-8fc3-8fc72ed8b64d", "navnerom": "https://data.geonorge.no/sosi/samfunnssikkerhet/tilfluktsrom", "versjonId": "20191001", "datauttaksdato": "2026-04-14T01:40:59", "opphav": "Direktoratet for samfunnssikkerhet og beredskap", "romnr": 2128, "plasser": 133, "adresse": "TANGVALL", "objtype": "Tilfluktsrom" }, "geometry": { "type": "Point", "coordinates": [ 7.814258358222159, 58.096338684464271 ] } },
{ "type": "Feature", "properties": { "lokalId": "ee4d4011-e326-4377-9628-ae89483e266d", "navnerom": "https://data.geonorge.no/sosi/samfunnssikkerhet/tilfluktsrom", "versjonId": "20191001", "datauttaksdato": "2026-04-14T01:40:59", "opphav": "Direktoratet for samfunnssikkerhet og beredskap", "romnr": 2180, "plasser": 235, "adresse": "SKOLEVEGEN 9", "objtype": "Tilfluktsrom" }, "geometry": { "type": "Point", "coordinates": [ 7.977302197123896, 58.275797512805234 ] } },
{ "type": "Feature", "properties": { "lokalId": "119bd3bc-d755-4a51-aebe-d73b358dbfd0", "navnerom": "https://data.geonorge.no/sosi/samfunnssikkerhet/tilfluktsrom", "versjonId": "20191001", "datauttaksdato": "2026-04-14T01:40:59", "opphav": "Direktoratet for samfunnssikkerhet og beredskap", "romnr": 2183, "plasser": 75, "adresse": "Drivenesvegen 24", "objtype": "Tilfluktsrom" }, "geometry": { "type": "Point", "coordinates": [ 7.964489660491243, 58.257677981763599 ] } },
{ "type": "Feature", "properties": { "lokalId": "4551bc9c-d6ec-4331-99ce-24b484734795", "navnerom": "https://data.geonorge.no/sosi/samfunnssikkerhet/tilfluktsrom", "versjonId": "20191001", "datauttaksdato": "2026-04-14T01:40:59", "opphav": "Direktoratet for samfunnssikkerhet og beredskap", "romnr": 2197, "plasser": 100, "adresse": "BURÅSVEIEN 59", "objtype": "Tilfluktsrom" }, "geometry": { "type": "Point", "coordinates": [ 7.434502985953482, 58.031973445203619 ] } },
{ "type": "Feature", "properties": { "lokalId": "bcef8b67-38c2-4c08-a3d0-7fdd35984dff", "navnerom": "https://data.geonorge.no/sosi/samfunnssikkerhet/tilfluktsrom", "versjonId": "20191001", "datauttaksdato": "2026-04-14T01:40:59", "opphav": "Direktoratet for samfunnssikkerhet og beredskap", "romnr": 2205, "plasser": 150, "adresse": "HOLBÆK ERIKSENSGATE 10", "objtype": "Tilfluktsrom" }, "geometry": { "type": "Point", "coordinates": [ 7.460789772253757, 58.029529388025338 ] } },
{ "type": "Feature", "properties": { "lokalId": "2568fe17-a093-4d6f-a3f3-90ec99d2083f", "navnerom": "https://data.geonorge.no/sosi/samfunnssikkerhet/tilfluktsrom", "versjonId": "20191001", "datauttaksdato": "2026-04-14T01:40:59", "opphav": "Direktoratet for samfunnssikkerhet og beredskap", "romnr": 2224, "plasser": 60, "adresse": "SOMMERKROVEIEN 18", "objtype": "Tilfluktsrom" }, "geometry": { "type": "Point", "coordinates": [ 7.472407503868565, 58.025063381879875 ] } },
{ "type": "Feature", "properties": { "lokalId": "f157d7a0-3e25-4a36-8436-30c8ee34b6a7", "navnerom": "https://data.geonorge.no/sosi/samfunnssikkerhet/tilfluktsrom", "versjonId": "20191001", "datauttaksdato": "2026-04-14T01:40:59", "opphav": "Direktoratet for samfunnssikkerhet og beredskap", "romnr": 2254, "plasser": 400, "adresse": "SELJEVEIEN 60", "objtype": "Tilfluktsrom" }, "geometry": { "type": "Point", "coordinates": [ 7.490132676233882, 58.030949000678469 ] } },
{ "type": "Feature", "properties": { "lokalId": "1788ff97-9800-4382-8892-a0783f3c9a03", "navnerom": "https://data.geonorge.no/sosi/samfunnssikkerhet/tilfluktsrom", "versjonId": "20191001", "datauttaksdato": "2026-04-14T01:40:59", "opphav": "Direktoratet for samfunnssikkerhet og beredskap", "romnr": 2286, "plasser": 30, "adresse": "STÅLESEN BYGG AS-AUTOHALLEN Vanse", "objtype": "Tilfluktsrom" }, "geometry": { "type": "Point", "coordinates": [ 6.696178259609056, 58.093131653146678 ] } },
{ "type": "Feature", "properties": { "lokalId": "b5ffb9cd-f871-48a1-a810-0c4f231c5fe6", "navnerom": "https://data.geonorge.no/sosi/samfunnssikkerhet/tilfluktsrom", "versjonId": "20191001", "datauttaksdato": "2026-04-14T01:40:59", "opphav": "Direktoratet for samfunnssikkerhet og beredskap", "romnr": 2293, "plasser": 100, "adresse": "SVEGESKOGEN 17", "objtype": "Tilfluktsrom" }, "geometry": { "type": "Point", "coordinates": [ 6.643847481636587, 58.283260909568718 ] } },
{ "type": "Feature", "properties": { "lokalId": "c2c3fac1-55ec-421f-a9b7-f61e4567ebde", "navnerom": "https://data.geonorge.no/sosi/samfunnssikkerhet/tilfluktsrom", "versjonId": "20191001", "datauttaksdato": "2026-04-14T01:40:59", "opphav": "Direktoratet for samfunnssikkerhet og beredskap", "romnr": 2306, "plasser": 220, "adresse": "Urgata 2", "objtype": "Tilfluktsrom" }, "geometry": { "type": "Point", "coordinates": [ 6.665635832596461, 58.296542444259579 ] } },
{ "type": "Feature", "properties": { "lokalId": "061417ad-4f35-4e0f-ada6-c0a4ddc8ca1f", "navnerom": "https://data.geonorge.no/sosi/samfunnssikkerhet/tilfluktsrom", "versjonId": "20191001", "datauttaksdato": "2026-04-14T01:40:59", "opphav": "Direktoratet for samfunnssikkerhet og beredskap", "romnr": 2310, "plasser": 190, "adresse": "RAULIVEIEN 2", "objtype": "Tilfluktsrom" }, "geometry": { "type": "Point", "coordinates": [ 6.669018863313187, 58.295212142881276 ] } },
{ "type": "Feature", "properties": { "lokalId": "a0119be9-1034-405c-825e-4732f69e9222", "navnerom": "https://data.geonorge.no/sosi/samfunnssikkerhet/tilfluktsrom", "versjonId": "20191001", "datauttaksdato": "2026-04-14T01:40:59", "opphav": "Direktoratet for samfunnssikkerhet og beredskap", "romnr": 2344, "plasser": 35, "adresse": "ROSFJORD", "objtype": "Tilfluktsrom" }, "geometry": { "type": "Point", "coordinates": [ 7.058312351095797, 58.121440148478364 ] } },
{ "type": "Feature", "properties": { "lokalId": "790be33c-19c0-4598-a760-42a917ac3c0d", "navnerom": "https://data.geonorge.no/sosi/samfunnssikkerhet/tilfluktsrom", "versjonId": "20191001", "datauttaksdato": "2026-04-14T01:40:59", "opphav": "Direktoratet for samfunnssikkerhet og beredskap", "romnr": 5962, "plasser": 230, "adresse": "Gåsungen Barnehage - Gåsåsen 20", "objtype": "Tilfluktsrom" }, "geometry": { "type": "Point", "coordinates": [ 8.747527780728287, 58.459571660442535 ] } },
{ "type": "Feature", "properties": { "lokalId": "7da9ce27-a8ae-486d-8337-5d696258dc4f", "navnerom": "https://data.geonorge.no/sosi/samfunnssikkerhet/tilfluktsrom", "versjonId": "20191001", "datauttaksdato": "2026-04-14T01:40:59", "opphav": "Direktoratet for samfunnssikkerhet og beredskap", "romnr": 6056, "plasser": 35, "adresse": "Birkenes kommunehus - Smedens Kjerr 30", "objtype": "Tilfluktsrom" }, "geometry": { "type": "Point", "coordinates": [ 8.232941524855271, 58.335012914734101 ] } },
{ "type": "Feature", "properties": { "lokalId": "8168af67-73c0-416b-a413-c3b782249b73", "navnerom": "https://data.geonorge.no/sosi/samfunnssikkerhet/tilfluktsrom", "versjonId": "20191001", "datauttaksdato": "2026-04-14T01:40:59", "opphav": "Direktoratet for samfunnssikkerhet og beredskap", "romnr": 6074, "plasser": 20, "adresse": "Herefoss Skole - Torsbumoen 14", "objtype": "Tilfluktsrom" }, "geometry": { "type": "Point", "coordinates": [ 8.353130149709814, 58.519122716810358 ] } },
{ "type": "Feature", "properties": { "lokalId": "caad27ba-0d95-4a97-b036-d01cd016179a", "navnerom": "https://data.geonorge.no/sosi/samfunnssikkerhet/tilfluktsrom", "versjonId": "20191001", "datauttaksdato": "2026-04-14T01:40:59", "opphav": "Direktoratet for samfunnssikkerhet og beredskap", "romnr": 6157, "plasser": 240, "adresse": "Risør Idrettshall - Caspersens vei 25", "objtype": "Tilfluktsrom" }, "geometry": { "type": "Point", "coordinates": [ 9.215198887239888, 58.714551291611606 ] } },
{ "type": "Feature", "properties": { "lokalId": "a48e445f-c245-408b-99c4-a32dfa1eecd7", "navnerom": "https://data.geonorge.no/sosi/samfunnssikkerhet/tilfluktsrom", "versjonId": "20191001", "datauttaksdato": "2026-04-14T01:40:59", "opphav": "Direktoratet for samfunnssikkerhet og beredskap", "romnr": 6160, "plasser": 470, "adresse": "Risør videregående skole - Sirisveien 8 Blokk A", "objtype": "Tilfluktsrom" }, "geometry": { "type": "Point", "coordinates": [ 9.216877259544704, 58.720064236477761 ] } },
{ "type": "Feature", "properties": { "lokalId": "4cd34b84-bc30-4e89-ad7f-ed78a8c1ecc2", "navnerom": "https://data.geonorge.no/sosi/samfunnssikkerhet/tilfluktsrom", "versjonId": "20191001", "datauttaksdato": "2026-04-14T01:40:59", "opphav": "Direktoratet for samfunnssikkerhet og beredskap", "romnr": 6206, "plasser": 90, "adresse": "Bjorbekktunet - Off - Bjorbekk - Johan Landmarksve", "objtype": "Tilfluktsrom" }, "geometry": { "type": "Point", "coordinates": [ 8.706224094748727, 58.440071806937311 ] } },
{ "type": "Feature", "properties": { "lokalId": "f2c32388-45c4-4511-bd96-c6f48a62dfda", "navnerom": "https://data.geonorge.no/sosi/samfunnssikkerhet/tilfluktsrom", "versjonId": "20191001", "datauttaksdato": "2026-04-14T01:40:59", "opphav": "Direktoratet for samfunnssikkerhet og beredskap", "romnr": 6207, "plasser": 26, "adresse": "Meny - Off - Stoa - Åsbieveien 2", "objtype": "Tilfluktsrom" }, "geometry": { "type": "Point", "coordinates": [ 8.712128930030957, 58.458410821661367 ] } },
{ "type": "Feature", "properties": { "lokalId": "3ce137bf-a31f-41a8-a5d2-4d1997ce2706", "navnerom": "https://data.geonorge.no/sosi/samfunnssikkerhet/tilfluktsrom", "versjonId": "20191001", "datauttaksdato": "2026-04-14T01:40:59", "opphav": "Direktoratet for samfunnssikkerhet og beredskap", "romnr": 6222, "plasser": 90, "adresse": "Idrettens Hus - Off - Kåre Eriksen A/S - Åsbievn 1", "objtype": "Tilfluktsrom" }, "geometry": { "type": "Point", "coordinates": [ 8.720037224116535, 58.458295449233951 ] } },
{ "type": "Feature", "properties": { "lokalId": "334cbc9c-1b75-4b58-a17f-26fc1cc14a8a", "navnerom": "https://data.geonorge.no/sosi/samfunnssikkerhet/tilfluktsrom", "versjonId": "20191001", "datauttaksdato": "2026-04-14T01:40:59", "opphav": "Direktoratet for samfunnssikkerhet og beredskap", "romnr": 6342, "plasser": 264, "adresse": "Høvågheimen Bo og aktivitetsenter - Høvåg", "objtype": "Tilfluktsrom" }, "geometry": { "type": "Point", "coordinates": [ 8.245039188604546, 58.170946653490681 ] } },
{ "type": "Feature", "properties": { "lokalId": "ab2547fb-6bb7-4b1a-9ad3-7a5b668625ae", "navnerom": "https://data.geonorge.no/sosi/samfunnssikkerhet/tilfluktsrom", "versjonId": "20191001", "datauttaksdato": "2026-04-14T01:40:59", "opphav": "Direktoratet for samfunnssikkerhet og beredskap", "romnr": 6356, "plasser": 28, "adresse": "Lillesand rådhus - Østregate 2", "objtype": "Tilfluktsrom" }, "geometry": { "type": "Point", "coordinates": [ 8.378623555888971, 58.249876687429172 ] } },
{ "type": "Feature", "properties": { "lokalId": "83ad981d-3ddb-4728-996b-20cb8a5b5b36", "navnerom": "https://data.geonorge.no/sosi/samfunnssikkerhet/tilfluktsrom", "versjonId": "20191001", "datauttaksdato": "2026-04-14T01:40:59", "opphav": "Direktoratet for samfunnssikkerhet og beredskap", "romnr": 6394, "plasser": 1300, "adresse": "Kulturhuset - Hestetorget,Storgaten 33", "objtype": "Tilfluktsrom" }, "geometry": { "type": "Point", "coordinates": [ 8.590395778329057, 58.342862387328474 ] } },
{ "type": "Feature", "properties": { "lokalId": "c0115bde-f450-4e7c-a7b0-45ce9e135e63", "navnerom": "https://data.geonorge.no/sosi/samfunnssikkerhet/tilfluktsrom", "versjonId": "20191001", "datauttaksdato": "2026-04-14T01:40:59", "opphav": "Direktoratet for samfunnssikkerhet og beredskap", "romnr": 6442, "plasser": 228, "adresse": "Eide Skole - Johan Markussens vei 90", "objtype": "Tilfluktsrom" }, "geometry": { "type": "Point", "coordinates": [ 8.50497305092612, 58.268899948015367 ] } },
{ "type": "Feature", "properties": { "lokalId": "7b04ce4d-5d7f-40ff-8976-c5a8e40b3c9c", "navnerom": "https://data.geonorge.no/sosi/samfunnssikkerhet/tilfluktsrom", "versjonId": "20191001", "datauttaksdato": "2026-04-14T01:40:59", "opphav": "Direktoratet for samfunnssikkerhet og beredskap", "romnr": 6547, "plasser": 50, "adresse": "Oddensenteret (kjeller) - Vesterled 4", "objtype": "Tilfluktsrom" }, "geometry": { "type": "Point", "coordinates": [ 8.592677726230916, 58.337942193659394 ] } },
{ "type": "Feature", "properties": { "lokalId": "d6ad31cf-00b7-44fb-82d8-243d6707c146", "navnerom": "https://data.geonorge.no/sosi/samfunnssikkerhet/tilfluktsrom", "versjonId": "20191001", "datauttaksdato": "2026-04-14T01:40:59", "opphav": "Direktoratet for samfunnssikkerhet og beredskap", "romnr": 6720, "plasser": 400, "adresse": "Froland Idrettshall - Mjølhusmoen - Rislandsvn 10", "objtype": "Tilfluktsrom" }, "geometry": { "type": "Point", "coordinates": [ 8.63278679789356, 58.515114183658667 ] } },
{ "type": "Feature", "properties": { "lokalId": "658fe699-8dd3-47f2-885f-62e0fc3476f8", "navnerom": "https://data.geonorge.no/sosi/samfunnssikkerhet/tilfluktsrom", "versjonId": "20191001", "datauttaksdato": "2026-04-14T01:40:59", "opphav": "Direktoratet for samfunnssikkerhet og beredskap", "romnr": 6749, "plasser": 106, "adresse": "Dønnestadgården - Bibliotekveien 4", "objtype": "Tilfluktsrom" }, "geometry": { "type": "Point", "coordinates": [ 8.928732172783688, 58.626552247131563 ] } },
{ "type": "Feature", "properties": { "lokalId": "a1dc43eb-b509-45e6-b86d-7e7dec419875", "navnerom": "https://data.geonorge.no/sosi/samfunnssikkerhet/tilfluktsrom", "versjonId": "20191001", "datauttaksdato": "2026-04-14T01:40:59", "opphav": "Direktoratet for samfunnssikkerhet og beredskap", "romnr": 6815, "plasser": 2400, "adresse": "Arendalstunnelen - Parkeringstunnell -Torvet/Barb", "objtype": "Tilfluktsrom" }, "geometry": { "type": "Point", "coordinates": [ 8.766068432060678, 58.461900484795443 ] } },
{ "type": "Feature", "properties": { "lokalId": "066fa94b-e53d-4fc8-96cd-895de63f51a5", "navnerom": "https://data.geonorge.no/sosi/samfunnssikkerhet/tilfluktsrom", "versjonId": "20191001", "datauttaksdato": "2026-04-14T01:40:59", "opphav": "Direktoratet for samfunnssikkerhet og beredskap", "romnr": 6819, "plasser": 1800, "adresse": "Birkenlundhallen - Kirkefjell 11", "objtype": "Tilfluktsrom" }, "geometry": { "type": "Point", "coordinates": [ 8.791073723722489, 58.471024733755115 ] } },
{ "type": "Feature", "properties": { "lokalId": "30c23259-aa97-41df-ac91-43af2e739396", "navnerom": "https://data.geonorge.no/sosi/samfunnssikkerhet/tilfluktsrom", "versjonId": "20191001", "datauttaksdato": "2026-04-14T01:41:00", "opphav": "Direktoratet for samfunnssikkerhet og beredskap", "romnr": 37879, "plasser": 120, "adresse": "Gullfakse Barnehage - Nordbødalen 12", "objtype": "Tilfluktsrom" }, "geometry": { "type": "Point", "coordinates": [ 8.789051156709235, 58.473321913472226 ] } },
{ "type": "Feature", "properties": { "lokalId": "7119511f-7e23-4c05-80e4-06acbb4505f5", "navnerom": "https://data.geonorge.no/sosi/samfunnssikkerhet/tilfluktsrom", "versjonId": "20191001", "datauttaksdato": "2026-04-14T01:41:00", "opphav": "Direktoratet for samfunnssikkerhet og beredskap", "romnr": 48661, "plasser": 0, "adresse": "Mikkelsmyrveien 3B", "objtype": "Tilfluktsrom" }, "geometry": { "type": "Point", "coordinates": [ 7.476920910322408, 58.028221087646855 ] } }
]
}
